EARTHCARE               
1 59908U 24101A   24239.60905747  .00023467  00000+0  32632-3 0  9997
2 59908  96.9862   5.7458 0003703 185.3853 174.7364 15.56975114 13930
